[{"OBJECT_NAME":"STARLINK-6336","OBJECT_ID":"2023-078X","EPOCH":"2026-03-09T21:29:58.591392","MEAN_MOTION":14.98326686,"ECCENTRICITY":0.00027955,"INCLINATION":70,"RA_OF_ASC_NODE":323.9674,"ARG_OF_PERICENTER":270.6387,"MEAN_ANOMALY":89.4452,"EPHEMERIS_TYPE":0,"CLASSIFICATION_TYPE":"U","NORAD_CAT_ID":56788,"ELEMENT_SET_NO":999,"REV_AT_EPOCH":15320,"BSTAR":-6.2157875e-5,"MEAN_MOTION_DOT":-8.34e-6,"MEAN_MOTION_DDOT":0},{"OBJECT_NAME":"CZ-6A DEB","OBJECT_ID":"2022-151MF","EPOCH":"2026-03-09T16:42:09.866592","MEAN_MOTION":14.87246776,"ECCENTRICITY":0.0047609,"INCLINATION":98.5571,"RA_OF_ASC_NODE":128.9986,"ARG_OF_PERICENTER":197.25,"MEAN_ANOMALY":162.7098,"EPHEMERIS_TYPE":0,"CLASSIFICATION_TYPE":"U","NORAD_CAT_ID":54579,"ELEMENT_SET_NO":999,"REV_AT_EPOCH":9742,"BSTAR":0.0037329366,"MEAN_MOTION_DOT":0.00034427,"MEAN_MOTION_DDOT":0}]
